STARLINK-36415          
1 67519U 26012AC  26031.83335647 -.01593130  00000+0 -55622-2 0  9995
2 67519  42.9961 167.1797 0001450 275.1417  32.7415 15.90895733  3304
STARLINK-36547          
1 67520U 26012AD  26031.83335647 -.01595895  00000+0 -56317-2 0  9999
2 67520  42.9959 167.2026 0001546 280.2698  18.3986 15.90694327  3087
STARLINK-36444          
1 67521U 26012AE  26031.83335647 -.01592212  00000+0 -56544-2 0  9992
2 67521  42.9963 167.2150 0001706 281.2098  13.0122 15.90564173  3083
HULIANWANG DIGUI-146    
1 67522U 26013A   26031.67830175  .00000008  00000+0  11866-3 0  9995
2 67522  50.0072 135.4585 0003033 275.5687  84.4867 13.93039903  1736
HULIANWANG DIGUI-147    
1 67523U 26013B   26027.66313970 -.00000123  00000+0  18037-4 0  9996
2 67523  50.0086 151.5449 0010772 261.1838  98.7844 13.97615600  1176
HULIANWANG DIGUI-148    
1 67524U 26013C   26021.44230141 -.00000137  00000+0  86600-5 0  9992
2 67524  50.0070 176.6144 0010785 240.3737 119.6091 13.98087765   308
HULIANWANG DIGUI-149    
1 67525U 26013D   26021.15633713 -.00000091  00000+0  40401-4 0  9990
2 67525  50.0063 177.7692 0010538 247.0477 112.9313 13.98123959   266
HULIANWANG DIGUI-150    
1 67526U 26013E   26025.15851686 -.00000115  00000+0  23740-4 0  9990
2 67526  50.0096 161.6201 0010015 258.6345 101.3432 13.98253437   846
HULIANWANG DIGUI-151    
1 67527U 26013F   26021.15608316 -.00000614  00000+0 -32354-3 0  9992
2 67527  50.0035 177.7600 0009841 238.6748 121.3191 13.98327198   267
HULIANWANG DIGUI-152    
1 67528U 26013G   26024.08719212 -.00000118  00000+0  21603-4 0  9990
2 67528  50.0047 165.9375 0009745 257.1222 102.8592 13.97836723   677
HULIANWANG DIGUI-153    
1 67529U 26013H   26021.87048088 -.00000100  00000+0  34277-4 0  9993
2 67529  50.0018 174.8698 0008966 242.4962 117.5029 13.98474895   357
HULIANWANG DIGUI-154    
1 67530U 26013J   26021.22721932 -.00000008  00000+0  98151-4 0  9998
2 67530  50.0045 177.4718 0008317 246.2151 113.7880 13.98568419   262
